NORAD_CAT_ID,OBJECT_NAME,OBJECT_TYPE,EPOCH,MEAN_MOTION,ECCENTRICITY,INCLINATION,RA_OF_ASC_NODE,ARG_OF_PERICENTER,MEAN_ANOMALY,BSTAR,MEAN_MOTION_DOT,MEAN_MOTION_DDOT,TLE_LINE0,TLE_LINE1,TLE_LINE2,SEMIMAJOR_AXIS,PERIOD,APOGEE,PERIGEE,DECAYED
52852.0,STARLINK-4184,PAYLOAD,2023-11-24 21:26:23,15.0883932,0.0001246,53.2147,176.1569,94.2675,265.846,3.416e-05,2.56e-06,0.0,0 STARLINK-4184,1 52852U 22062Y   23328.89332704  .00000256  00000-0  34160-4 0  9999,2 52852  53.2147 176.1569 0001246  94.2675 265.8460 15.08839320 79744,6917.882,95.438,540.609,538.885,0.0
52852.0,STARLINK-4184,PAYLOAD,2023-11-24 23:01:46,15.08841061,0.0001333,53.2148,175.8592,108.574,251.5397,5.6456e-05,6.11e-06,0.0,0 STARLINK-4184,1 52852U 22062Y   23328.95956581  .00000611  00000-0  56456-4 0  9998,2 52852  53.2148 175.8592 0001333 108.5740 251.5397 15.08841061 80249,6917.877,95.437,540.664,538.82,0.0
52852.0,STARLINK-4184,PAYLOAD,2023-11-25 21:17:10,15.08856924,0.0001214,53.2135,171.6954,103.4695,256.6433,0.00050506,7.763e-05,0.0,0 STARLINK-4184,1 52852U 22062Y   23329.88692232  .00007763  00000-0  50506-3 0  9995,2 52852  53.2135 171.6954 0001214 103.4695 256.6433 15.08856924 79892,6917.829,95.436,540.533,538.854,0.0
52852.0,STARLINK-4184,PAYLOAD,2023-11-26 13:11:01,15.08844377,0.0001385,53.2134,168.7223,91.4587,268.6563,9.4667e-05,1.219e-05,0.0,0 STARLINK-4184,1 52852U 22062Y   23330.54932278  .00001219  00000-0  94667-4 0  9994,2 52852  53.2134 168.7223 0001385  91.4587 268.6563 15.08844377 79999,6917.867,95.437,540.69,538.774,0.0
52852.0,STARLINK-4184,PAYLOAD,2023-11-26 19:32:34,15.08843074,0.0001218,53.214,167.5317,92.2946,267.8186,6.2359e-05,7.05e-06,0.0,0 STARLINK-4184,1 52852U 22062Y   23330.81428493  .00000705  00000-0  62359-4 0  9995,2 52852  53.2140 167.5317 0001218  92.2946 267.8186 15.08843074 80526,6917.871,95.437,540.579,538.893,0.0
52852.0,STARLINK-4184,PAYLOAD,2023-11-27 13:01:51,15.08816837,0.0001244,53.2161,164.2588,85.0107,275.1028,-0.00024625,-4.202e-05,0.0,0 STARLINK-4184,1 52852U 22062Y   23331.54295969 -.00004202  00000-0 -24625-3 0  9997,2 52852  53.2161 164.2588 0001244  85.0107 275.1028 15.08816837 80143,6917.951,95.439,540.677,538.956,0.0
52852.0,STARLINK-4184,PAYLOAD,2023-11-27 19:23:22,15.08845874,0.0001282,53.2149,163.0717,86.8281,273.2858,3.5397e-05,2.76e-06,0.0,0 STARLINK-4184,1 52852U 22062Y   23331.80789563  .00000276  00000-0  35397-4 0  9998,2 52852  53.2149 163.0717 0001282  86.8281 273.2858 15.08845874 80675,6917.862,95.437,540.614,538.841,0.0
52852.0,STARLINK-4184,PAYLOAD,2023-11-28 12:52:35,15.08857651,0.0001365,53.2152,159.8015,73.7321,286.3821,0.00027282,4.059e-05,0.0,0 STARLINK-4184,1 52852U 22062Y   23332.53651930  .00004059  00000-0  27282-3 0  9991,2 52852  53.2152 159.8015 0001365  73.7321 286.3821 15.08857651 80294,6917.826,95.436,540.636,538.747,0.0
52852.0,STARLINK-4184,PAYLOAD,2023-11-28 19:14:08,15.08865162,0.000125,53.2142,158.6117,82.1293,277.9841,0.00056533,8.727e-05,0.0,0 STARLINK-4184,1 52852U 22062Y   23332.80148514  .00008727  00000-0  56533-3 0  9997,2 52852  53.2142 158.6117 0001250  82.1293 277.9841 15.08865162 80821,6917.803,95.436,540.533,538.804,0.0
52852.0,STARLINK-4184,PAYLOAD,2023-11-29 12:43:23,15.08855521,0.0001421,53.2143,155.3405,77.0883,283.0267,0.00011975,1.619e-05,0.0,0 STARLINK-4184,1 52852U 22062Y   23333.53012733  .00001619  00000-0  11975-3 0  9995,2 52852  53.2143 155.3405 0001421  77.0883 283.0267 15.08855521 80934,6917.833,95.437,540.681,538.715,0.0
52852.0,STARLINK-4184,PAYLOAD,2023-11-29 19:04:55,15.08845085,0.0001229,53.2144,154.1488,100.138,259.975,-8.623e-05,-1.66e-05,0.0,0 STARLINK-4184,1 52852U 22062Y   23333.79508898 -.00001660  00000-0 -86230-4 0  9990,2 52852  53.2144 154.1488 0001229 100.1380 259.9750 15.08845085 80976,6917.865,95.437,540.58,538.88,0.0
52852.0,STARLINK-4184,PAYLOAD,2023-12-01 17:11:05,15.08856426,0.0001827,53.2167,145.5255,120.68,239.4372,-1.9576e-05,-6e-06,0.0,0 STARLINK-4184,1 52852U 22062Y   23335.71603986 -.00000600  00000-0 -19576-4 0  9990,2 52852  53.2167 145.5255 0001827 120.6800 239.4372 15.08856426 81262,6917.83,95.437,540.959,538.431,0.0
52852.0,STARLINK-4184,PAYLOAD,2023-12-02 18:37:16,15.08844231,0.0001279,53.2162,140.768,89.1849,270.929,0.00011274,1.507e-05,0.0,0 STARLINK-4184,1 52852U 22062Y   23336.77588539  .00001507  00000-0  11274-3 0  9994,2 52852  53.2162 140.7680 0001279  89.1849 270.9290 15.08844231 81427,6917.867,95.437,540.617,538.848,0.0
52852.0,STARLINK-4184,PAYLOAD,2023-12-03 10:31:09,15.08829563,0.0001512,53.2161,137.7935,116.4732,243.6415,-3.4393e-05,-8.35e-06,0.0,0 STARLINK-4184,1 52852U 22062Y   23337.43830050 -.00000835  00000-0 -34393-4 0  9999,2 52852  53.2161 137.7935 0001512 116.4732 243.6415 15.08829563 81528,6917.912,95.438,540.823,538.731,0.0
52852.0,STARLINK-4184,PAYLOAD,2023-12-03 18:28:04,15.08836255,0.0001996,53.2166,136.308,129.6139,230.503,-0.00019,-3.311e-05,0.0,0 STARLINK-4184,1 52852U 22062Y   23337.76950192 -.00003311  00000-0 -19000-3 0  9994,2 52852  53.2166 136.3080 0001996 129.6139 230.5030 15.08836255 81087,6917.892,95.438,541.138,538.376,0.0
52852.0,STARLINK-4184,PAYLOAD,2023-12-04 19:54:15,15.08831932,0.0001388,53.217,131.5493,86.2801,273.835,6.9472e-05,8.18e-06,0.0,0 STARLINK-4184,1 52852U 22062Y   23338.82934576  .00000818  00000-0  69472-4 0  9996,2 52852  53.2170 131.5493 0001388  86.2801 273.8350 15.08831932 81730,6917.905,95.438,540.73,538.81,0.0
52852.0,STARLINK-4184,PAYLOAD,2023-12-06 13:14:15,15.08848627,0.0001142,53.2178,123.8214,88.4611,271.6512,0.00012502,1.703e-05,0.0,0 STARLINK-4184,1 52852U 22062Y   23340.55157198  .00001703  00000-0  12502-3 0  9991,2 52852  53.2178 123.8214 0001142  88.4611 271.6512 15.08848627 81504,6917.854,95.437,540.509,538.929,0.0
52852.0,STARLINK-4184,PAYLOAD,2023-12-06 19:35:48,15.08849506,0.0001318,53.2169,122.6311,108.8141,251.2994,0.00013256,1.823e-05,0.0,0 STARLINK-4184,1 52852U 22062Y   23340.81653037  .00001823  00000-0  13256-3 0  9993,2 52852  53.2169 122.6311 0001318 108.8141 251.2994 15.08849506 82033,6917.851,95.437,540.628,538.805,0.0
52852.0,STARLINK-4184,PAYLOAD,2023-12-07 09:54:17,15.08838075,0.0001337,53.2173,119.9507,100.9682,259.1461,3.2882e-05,2.35e-06,0.0,0 STARLINK-4184,1 52852U 22062Y   23341.41270049  .00000235  00000-0  32882-4 0  9991,2 52852  53.2173 119.9507 0001337 100.9682 259.1461 15.08838075 82123,6917.886,95.438,540.676,538.826,0.0
52852.0,STARLINK-4184,PAYLOAD,2023-12-07 13:05:03,15.08840704,0.0001337,53.2178,119.3588,114.7988,245.3144,5.3629e-05,5.66e-06,0.0,0 STARLINK-4184,1 52852U 22062Y   23341.54517880  .00000566  00000-0  53629-4 0  9991,2 52852  53.2178 119.3588 0001337 114.7988 245.3144 15.08840704 81657,6917.878,95.438,540.668,538.818,0.0
52852.0,STARLINK-4184,PAYLOAD,2023-12-08 12:55:50,15.08836964,0.000147,53.2164,114.8933,110.2557,249.8593,3.0284e-05,1.94e-06,0.0,0 STARLINK-4184,1 52852U 22062Y   23342.53877854  .00000194  00000-0  30284-4 0  9990,2 52852  53.2164 114.8933 0001470 110.2557 249.8593 15.08836964 81804,6917.89,95.438,540.772,538.738,0.0
52852.0,STARLINK-4184,PAYLOAD,2023-12-09 12:46:37,15.08836135,0.0001285,53.2181,110.4387,101.1324,258.9812,3.5822e-05,2.82e-06,0.0,0 STARLINK-4184,1 52852U 22062Y   23343.53238152  .00000282  00000-0  35822-4 0  9994,2 52852  53.2181 110.4387 0001285 101.1324 258.9812 15.08836135 81954,6917.892,95.438,540.646,538.868,0.0
52852.0,STARLINK-4184,PAYLOAD,2023-12-10 14:12:47,15.08840225,0.0001241,53.2188,105.6811,91.6778,268.4356,9.1384e-05,1.167e-05,0.0,0 STARLINK-4184,1 52852U 22062Y   23344.59221928  .00001167  00000-0  91384-4 0  9992,2 52852  53.2188 105.6811 0001241  91.6778 268.4356 15.08840225 82110,6917.88,95.438,540.603,538.886,0.0
52852.0,STARLINK-4184,PAYLOAD,2023-12-10 15:48:10,15.08841842,0.0001196,53.2175,105.3831,88.0059,272.107,0.00010301,1.352e-05,0.0,0 STARLINK-4184,1 52852U 22062Y   23344.65845792  .00001352  00000-0  10301-3 0  9995,2 52852  53.2175 105.3831 0001196  88.0059 272.1070 15.08841842 82612,6917.875,95.437,540.567,538.912,0.0
52852.0,STARLINK-4184,PAYLOAD,2023-12-11 14:03:35,15.08839385,0.0001429,53.2176,101.2195,71.9797,288.135,4.0934e-05,3.64e-06,0.0,0 STARLINK-4184,1 52852U 22062Y   23345.58582301  .00000364  00000-0  40934-4 0  9990,2 52852  53.2176 101.2195 0001429  71.9797 288.1350 15.08839385 82268,6917.882,95.438,540.736,538.759,0.0
52852.0,STARLINK-4184,PAYLOAD,2023-12-11 15:38:58,15.08841703,0.0001256,53.2177,100.9217,77.4178,282.6954,5.1789e-05,5.36e-06,0.0,0 STARLINK-4184,1 52852U 22062Y   23345.65206065  .00000536  00000-0  51789-4 0  9999,2 52852  53.2177 100.9217 0001256  77.4178 282.6954 15.08841703 82279,6917.875,95.437,540.609,538.871,0.0
52852.0,STARLINK-4184,PAYLOAD,2023-12-12 13:54:22,15.08824995,0.0001453,53.2181,96.7546,62.8694,297.2446,0.00029022,4.332e-05,0.0,0 STARLINK-4184,1 52852U 22062Y   23346.57942226  .00004332  00000-0  29022-3 0  9999,2 52852  53.2181  96.7546 0001453  62.8694 297.2446 15.08824995 82419,6917.926,95.439,540.796,538.786,0.0
52852.0,STARLINK-4184,PAYLOAD,2023-12-13 12:09:44,15.08852163,0.000123,53.2181,92.5939,81.9659,278.1473,0.00011764,1.585e-05,0.0,0 STARLINK-4184,1 52852U 22062Y   23347.50677006  .00001585  00000-0  11764-3 0  9995,2 52852  53.2181  92.5939 0001230  81.9659 278.1473 15.08852163 83041,6917.843,95.437,540.559,538.857,0.0
52852.0,STARLINK-4184,PAYLOAD,2023-12-13 13:45:08,15.08848425,0.0001325,53.2182,92.2975,59.332,300.7803,8.2973e-05,1.033e-05,0.0,0 STARLINK-4184,1 52852U 22062Y   23347.57301368  .00001033  00000-0  82973-4 0  9996,2 52852  53.2182  92.2975 0001325  59.3320 300.7803 15.08848425 82569,6917.855,95.437,540.636,538.803,0.0
52852.0,STARLINK-4184,PAYLOAD,2023-12-14 12:00:32,15.08839413,0.0001249,53.218,88.1389,87.5548,272.5587,1.7509e-05,-9e-08,0.0,0 STARLINK-4184,1 52852U 22062Y   23348.50038056 -.00000009  00000-0  17509-4 0  9997,2 52852  53.2180  88.1389 0001249  87.5548 272.5587 15.08839413 83192,6917.882,95.438,540.611,538.883,0.0
